start=new Date('2022-05-24T00:00:00.000Z').valueOf();
sats=[{"SEMIMAJOR_AXIS":"6925.341","MEAN_ANOMALY":"271.9398","CLASSIFICATION_TYPE":"U","RA_OF_ASC_NODE":"47.8550","LAUNCH_DATE":"2020-09-03","CENTER_NAME":"EARTH","BSTAR":"0.00031704000000","SITE":"AFETR","EPOCH":"2022-05-23T20:40:59.945088","APOAPSIS":"547.965","INCLINATION":"53.0566","TIME_SYSTEM":"UTC","NORAD_CAT_ID":"46374","TLE_LINE1":"1 46374U 20062BB  22143.86180492  .00004444  00000-0  31704-3 0  9998","GP_ID":"204364220","MEAN_MOTION_DDOT":"0.0000000000000","OBJECT_ID":"2020-062BB","REV_AT_EPOCH":"9641","COUNTRY_CODE":"US","DECAY_DATE":null,"ELEMENT_SET_NO":"999","TLE_LINE2":"2 46374  53.0566  47.8550 0001096  88.1717 271.9398 15.06402382 96418","FILE":"3460905","MEAN_MOTION_DOT":"0.00004444","EPHEMERIS_TYPE":"0","MEAN_ELEMENT_THEORY":"SGP4","PERIOD":"95.592","RCS_SIZE":"LARGE","OBJECT_NAME":"STARLINK-1711","ECCENTRICITY":"0.00010960","PERIAPSIS":"546.447","REF_FRAME":"TEME","ARG_OF_PERICENTER":"88.1717","OBJECT_TYPE":"PAYLOAD","MEAN_MOTION":"15.06402382"},{"RCS_SIZE":"LARGE","OBJECT_NAME":"STARLINK-1724","PERIOD":"95.593","ELEMENT_SET_NO":"999","EPHEMERIS_TYPE":"0","MEAN_ELEMENT_THEORY":"SGP4","TLE_LINE2":"2 46375  53.0557  74.2555 0002025  46.5840 313.5318 15.06381644 96193","FILE":"3460535","MEAN_MOTION_DOT":"-0.00000731","OBJECT_ID":"2020-062BC","MEAN_MOTION_DDOT":"0.0000000000000","COUNTRY_CODE":"US","DECAY_DATE":null,"REV_AT_EPOCH":"9619","MEAN_MOTION":"15.06381644","OBJECT_TYPE":"PAYLOAD","PERIAPSIS":"545.867","ARG_OF_PERICENTER":"46.5840","REF_FRAME":"TEME","ECCENTRICITY":"0.00020250","BSTAR":"-0.00003018500000","CLASSIFICATION_TYPE":"U","MEAN_ANOMALY":"313.5318","CENTER_NAME":"EARTH","RA_OF_ASC_NODE":"74.2555","LAUNCH_DATE":"2020-09-03","SEMIMAJOR_AXIS":"6925.405","TLE_LINE1":"1 46375U 20062BC  22143.54435779 -.00000731  00000-0 -30185-4 0  9995","GP_ID":"204335785","NORAD_CAT_ID":"46375","APOAPSIS":"548.672","TIME_SYSTEM":"UTC","INCLINATION":"53.0557","EPOCH":"2022-05-23T13:03:52.513056","SITE":"AFETR"},{"SEMIMAJOR_AXIS":"6925.368","CLASSIFICATION_TYPE":"U","MEAN_ANOMALY":"305.4111","RA_OF_ASC_NODE":"75.3992","LAUNCH_DATE":"2020-09-03","CENTER_NAME":"EARTH","BSTAR":"-0.00026703000000","SITE":"AFETR","EPOCH":"2022-05-23T07:02:56.865408","APOAPSIS":"548.530","INCLINATION":"53.0565","TIME_SYSTEM":"UTC","NORAD_CAT_ID":"46376","TLE_LINE1":"1 46376U 20062BD  22143.29371372 -.00004256  00000-0 -26703-3 0  9992","GP_ID":"204326603","OBJECT_ID":"2020-062BD","MEAN_MOTION_DDOT":"0.0000000000000","REV_AT_EPOCH":"9597","DECAY_DATE":null,"COUNTRY_CODE":"US","ELEMENT_SET_NO":"999","TLE_LINE2":"2 46376  53.0565  75.3992 0001872  54.7053 305.4111 15.06393573 95976","FILE":"3460386","MEAN_MOTION_DOT":"-0.00004256","MEAN_ELEMENT_THEORY":"SGP4","EPHEMERIS_TYPE":"0","PERIOD":"95.593","RCS_SIZE":"LARGE","OBJECT_NAME":"STARLINK-1742","ECCENTRICITY":"0.00018720","PERIAPSIS":"545.937","REF_FRAME":"TEME","ARG_OF_PERICENTER":"54.7053","OBJECT_TYPE":"PAYLOAD","MEAN_MOTION":"15.06393573"},{"RCS_SIZE":"LARGE","OBJECT_NAME":"STARLINK-1758","PERIOD":"95.593","ELEMENT_SET_NO":"999","MEAN_ELEMENT_THEORY":"SGP4","EPHEMERIS_TYPE":"0","FILE":"3460386","TLE_LINE2":"2 46380  53.0557 100.5479 0001894  46.0949 314.0196 15.06388683 95622","MEAN_MOTION_DOT":"-0.00000298","MEAN_MOTION_DDOT":"0.0000000000000","OBJECT_ID":"2020-062BH","DECAY_DATE":null,"COUNTRY_CODE":"US","REV_AT_EPOCH":"9562","MEAN_MOTION":"15.06388683","OBJECT_TYPE":"PAYLOAD","PERIAPSIS":"545.937","ARG_OF_PERICENTER":"46.0949","REF_FRAME":"TEME","ECCENTRICITY":"0.00018940","BSTAR":"-0.00000107270000","MEAN_ANOMALY":"314.0196","CLASSIFICATION_TYPE":"U","CENTER_NAME":"EARTH","RA_OF_ASC_NODE":"100.5479","LAUNCH_DATE":"2020-09-03","SEMIMAJOR_AXIS":"6925.383","TLE_LINE1":"1 46380U 20062BH  22143.26007768 -.00000298  00000-0 -10727-5 0  9992","GP_ID":"204327355","NORAD_CAT_ID":"46380","APOAPSIS":"548.560","TIME_SYSTEM":"UTC","INCLINATION":"53.0557","EPOCH":"2022-05-23T06:14:30.711552","SITE":"AFETR"},{"SEMIMAJOR_AXIS":"6925.387","BSTAR":"0.00000229790000","CLASSIFICATION_TYPE":"U","MEAN_ANOMALY":"309.7206","CENTER_NAME":"EARTH","RA_OF_ASC_NODE":"74.4445","LAUNCH_DATE":"2020-09-03","APOAPSIS":"548.467","TIME_SYSTEM":"UTC","INCLINATION":"53.0553","EPOCH":"2022-05-23T12:10:47.466912","SITE":"AFETR","TLE_LINE1":"1 46382U 20062BK  22143.50749383 -.00000247  00000-0  22979-5 0  9992","GP_ID":"204335831","NORAD_CAT_ID":"46382","ELEMENT_SET_NO":"999","EPHEMERIS_TYPE":"0","MEAN_ELEMENT_THEORY":"SGP4","TLE_LINE2":"2 46382  53.0553  74.4445 0001754  50.3938 309.7206 15.06387353 96169","FILE":"3460538","MEAN_MOTION_DOT":"-0.00000247","MEAN_MOTION_DDOT":"0.0000000000000","OBJECT_ID":"2020-062BK","COUNTRY_CODE":"US","DECAY_DATE":null,"REV_AT_EPOCH":"9616","RCS_SIZE":"LARGE","OBJECT_NAME":"STARLINK-1769","PERIOD":"95.593","PERIAPSIS":"546.038","ARG_OF_PERICENTER":"50.3938","REF_FRAME":"TEME","ECCENTRICITY":"0.00017540","MEAN_MOTION":"15.06387353","OBJECT_TYPE":"PAYLOAD"},{"TLE_LINE2":"2 46383  53.0539 118.9038 0001846  54.9076 305.2086 15.06401364 95391","FILE":"3460905","MEAN_MOTION_DOT":"0.00000675","MEAN_ELEMENT_THEORY":"SGP4","EPHEMERIS_TYPE":"0","ELEMENT_SET_NO":"999","REV_AT_EPOCH":"9539","DECAY_DATE":null,"COUNTRY_CODE":"US","OBJECT_ID":"2020-062BL","MEAN_MOTION_DDOT":"0.0000000000000","OBJECT_NAME":"STARLINK-1770","RCS_SIZE":"LARGE","PERIOD":"95.592","REF_FRAME":"TEME","ARG_OF_PERICENTER":"54.9076","PERIAPSIS":"545.931","ECCENTRICITY":"0.00018460","MEAN_MOTION":"15.06401364","OBJECT_TYPE":"PAYLOAD","SEMIMAJOR_AXIS":"6925.344","BSTAR":"0.00006422400000","RA_OF_ASC_NODE":"118.9038","LAUNCH_DATE":"2020-09-03","CENTER_NAME":"EARTH","CLASSIFICATION_TYPE":"U","MEAN_ANOMALY":"305.2086","INCLINATION":"53.0539","TIME_SYSTEM":"UTC","APOAPSIS":"548.488","SITE":"AFETR","EPOCH":"2022-05-23T15:02:37.165920","TLE_LINE1":"1 46383U 20062BL  22143.62681905  .00000675  00000-0  64224-4 0  9993","GP_ID":"204362471","NORAD_CAT_ID":"46383"},{"NORAD_CAT_ID":"46384","TLE_LINE1":"1 46384U 20062BM  22143.63050584  .00000106  00000-0  26030-4 0  9990","GP_ID":"204362721","EPOCH":"2022-05-23T15:07:55.704576","SITE":"AFETR","TIME_SYSTEM":"UTC","INCLINATION":"53.0554","APOAPSIS":"548.371","CENTER_NAME":"EARTH","RA_OF_ASC_NODE":"118.8908","LAUNCH_DATE":"2020-09-03","CLASSIFICATION_TYPE":"U","MEAN_ANOMALY":"297.7881","BSTAR":"0.00002603000000","SEMIMAJOR_AXIS":"6925.351","OBJECT_TYPE":"PAYLOAD","MEAN_MOTION":"15.06399161","ECCENTRICITY":"0.00016670","ARG_OF_PERICENTER":"62.3277","REF_FRAME":"TEME","PERIAPSIS":"546.062","PERIOD":"95.592","OBJECT_NAME":"STARLINK-1771","RCS_SIZE":"LARGE","COUNTRY_CODE":"US","DECAY_DATE":null,"REV_AT_EPOCH":"9539","MEAN_MOTION_DDOT":"0.0000000000000","OBJECT_ID":"2020-062BM","EPHEMERIS_TYPE":"0","MEAN_ELEMENT_THEORY":"SGP4","TLE_LINE2":"2 46384  53.0554 118.8908 0001667  62.3277 297.7881 15.06399161 95390","FILE":"3460905","MEAN_MOTION_DOT":"0.00000106","ELEMENT_SET_NO":"999"},{"BSTAR":"0.00008338200000","RA_OF_ASC_NODE":"278.2809","LAUNCH_DATE":"2020-10-06","CENTER_NAME":"EARTH","MEAN_ANOMALY":"276.8387","CLASSIFICATION_TYPE":"U","SEMIMAJOR_AXIS":"6925.373","GP_ID":"204363982","TLE_LINE1":"1 46532U 20070A   22143.76320701  .00000960  00000-0  83382-4 0  9990","NORAD_CAT_ID":"46532","INCLINATION":"53.0560","TIME_SYSTEM":"UTC","APOAPSIS":"548.315","SITE":"AFETR","EPOCH":"2022-05-23T18:19:01.085664","RCS_SIZE":"LARGE","OBJECT_NAME":"STARLINK-1644","PERIOD":"95.593","FILE":"3460905","TLE_LINE2":"2 46532  53.0560 278.2809 0001555  83.2779 276.8387 15.06391880 90617","MEAN_MOTION_DOT":"0.00000960","EPHEMERIS_TYPE":"0","MEAN_ELEMENT_THEORY":"SGP4","ELEMENT_SET_NO":"999","REV_AT_EPOCH":"9061","COUNTRY_CODE":"US","DECAY_DATE":null,"MEAN_MOTION_DDOT":"0.0000000000000","OBJECT_ID":"2020-070A","MEAN_MOTION":"15.06391880","OBJECT_TYPE":"PAYLOAD","REF_FRAME":"TEME","ARG_OF_PERICENTER":"83.2779","PERIAPSIS":"546.162","ECCENTRICITY":"0.00015550"},{"APOAPSIS":"548.390","INCLINATION":"53.0549","TIME_SYSTEM":"UTC","SITE":"AFETR","EPOCH":"2022-05-23T15:23:51.763776","GP_ID":"204365987","TLE_LINE1":"1 46533U 20070B   22143.64157134  .00000779  00000-0  71238-4 0  9991","NORAD_CAT_ID":"46533","SEMIMAJOR_AXIS":"6925.384","BSTAR":"0.00007123800000","MEAN_ANOMALY":"295.1847","CLASSIFICATION_TYPE":"U","LAUNCH_DATE":"2020-10-06","RA_OF_ASC_NODE":"278.8182","CENTER_NAME":"EARTH","PERIAPSIS":"546.108","REF_FRAME":"TEME","ARG_OF_PERICENTER":"64.9313","ECCENTRICITY":"0.00016480","MEAN_MOTION":"15.06388463","OBJECT_TYPE":"PAYLOAD","ELEMENT_SET_NO":"999","TLE_LINE2":"2 46533  53.0549 278.8182 0001648  64.9313 295.1847 15.06388463 90593","MEAN_MOTION_DOT":"0.00000779","FILE":"3460905","EPHEMERIS_TYPE":"0","MEAN_ELEMENT_THEORY":"SGP4","MEAN_MOTION_DDOT":"0.0000000000000","OBJECT_ID":"2020-070B","REV_AT_EPOCH":"9059","DECAY_DATE":null,"COUNTRY_CODE":"US","OBJECT_NAME":"STARLINK-1648","RCS_SIZE":"LARGE","PERIOD":"95.593"},{"ARG_OF_PERICENTER":"63.0341","REF_FRAME":"TEME","PERIAPSIS":"546.066","ECCENTRICITY":"0.00016860","MEAN_MOTION":"15.06393340","OBJECT_TYPE":"PAYLOAD","EPHEMERIS_TYPE":"0","MEAN_ELEMENT_THEORY":"SGP4","TLE_LINE2":"2 46534  53.0539 278.3250 0001686  63.0341 297.0820 15.06393340 90612","FILE":"3460905","MEAN_MOTION_DOT":"-0.00001154","ELEMENT_SET_NO":"999","COUNTRY_CODE":"US","DECAY_DATE":null,"REV_AT_EPOCH":"9061","OBJECT_ID":"2020-070C","MEAN_MOTION_DDOT":"0.0000000000000","OBJECT_NAME":"STARLINK-1659","RCS_SIZE":"LARGE","PERIOD":"95.593","TIME_SYSTEM":"UTC","INCLINATION":"53.0539","APOAPSIS":"548.402","EPOCH":"2022-05-23T18:08:23.557344","SITE":"AFETR","TLE_LINE1":"1 46534U 20070C   22143.75582821 -.00001154  00000-0 -58570-4 0  9993","GP_ID":"204364738","NORAD_CAT_ID":"46534","SEMIMAJOR_AXIS":"6925.369","BSTAR":"-0.00005857000000","CENTER_NAME":"EARTH","LAUNCH_DATE":"2020-10-06","RA_OF_ASC_NODE":"278.3250","CLASSIFICATION_TYPE":"U","MEAN_ANOMALY":"297.0820"}];
